{
    "links": {
        "self": "http://www.neowsapp.com/rest/v1/neo/3799246?api_key=iIulBulltgU6a56xZRHN4H3l9WmuAYTsLGpBGhQ2"
    },
    "id": "3799246",
    "neo_reference_id": "3799246",
    "name": "(2018 CZ)",
    "designation": "2018 CZ",
    "nasa_jpl_url": "http://ssd.jpl.nasa.gov/sbdb.cgi?sstr=3799246",
    "absolute_magnitude_h": 25.1,
    "estimated_diameter": {
        "kilometers": {
            "estimated_diameter_min": 0.0253837029,
            "estimated_diameter_max": 0.0567596853
        },
        "meters": {
            "estimated_diameter_min": 25.3837029364,
            "estimated_diameter_max": 56.7596852866
        },
        "miles": {
            "estimated_diameter_min": 0.0157726969,
            "estimated_diameter_max": 0.0352688224
        },
        "feet": {
            "estimated_diameter_min": 83.279867942,
            "estimated_diameter_max": 186.2194458756
        }
    },
    "is_potentially_hazardous_asteroid": false,
    "close_approach_data": [
        {
            "close_approach_date": "2018-02-16",
            "close_approach_date_full": "2018-Feb-16 12:10",
            "epoch_date_close_approach": 1518783000000,
            "relative_velocity": {
                "kilometers_per_second": "9.1388387357",
                "kilometers_per_hour": "32899.8194486385",
                "miles_per_hour": "20442.668367961"
            },
            "miss_distance": {
                "astronomical": "0.0716157377",
                "lunar": "27.8585219653",
                "kilometers": "10713561.818398699",
                "miles": "6657098.6201880862"
            },
            "orbiting_body": "Earth"
        }
    ],
    "orbital_data": {
        "orbit_id": "5",
        "orbit_determination_date": "2018-02-23 06:23:27",
        "first_observation_date": "2018-02-05",
        "last_observation_date": "2018-02-23",
        "data_arc_in_days": 18,
        "observations_used": 27,
        "orbit_uncertainty": "8",
        "minimum_orbit_intersection": ".0705487",
        "jupiter_tisserand_invariant": "3.986",
        "epoch_osculation": "2458158.5",
        "eccentricity": ".4094294665030539",
        "semi_major_axis": "1.76289700339392",
        "inclination": "13.21540785950458",
        "ascending_node_longitude": "141.8627317817532",
        "orbital_period": "854.9462981461703",
        "perihelion_distance": "1.041115023794515",
        "perihelion_argument": "22.92642969940295",
        "aphelion_distance": "2.484678982993325",
        "perihelion_time": "2458181.071990241353",
        "mean_anomaly": "350.495407133165",
        "mean_motion": ".4210790792130557",
        "equinox": "J2000",
        "orbit_class": {
            "orbit_class_type": "AMO",
            "orbit_class_description": "Near-Earth asteroid orbits similar to that of 1221 Amor",
            "orbit_class_range": "1.017 AU < q (perihelion) < 1.3 AU"
        }
    },
    "is_sentry_object": false
}